{"type": "FeatureCollection", "features": [ {"type": "Feature", "properties": {"norad_id": 58662, "name": "TIANMU-1 21", "group": "weather", "lat": 39.62588591475587, "lon": 104.08322200047145, "alt_km": 471.93294663994857, "timestamp": "2025-12-22T20:43:45.486709+00:00", "meta": {"OBJECT_NAME": "TIANMU-1 21", "OBJECT_ID": "2023-208C", "EPOCH": "2025-12-22T14:17:00.725856", "MEAN_MOTION": 15.31749298, "ECCENTRICITY": 0.00063247, "INCLINATION": 97.4381, "RA_OF_ASC_NODE": 110.024, "ARG_OF_PERICENTER": 219.0424, "MEAN_ANOMALY": 141.0362, "EPHEMERIS_TYPE": 0, "CLASSIFICATION_TYPE": "U", "NORAD_CAT_ID": 58662, "ELEMENT_SET_NO": 999, "REV_AT_EPOCH": 11050, "BSTAR": 0.00038380363, "MEAN_MOTION_DOT": 0.00011699, "MEAN_MOTION_DDOT": 0}, "tle": {"line1": "1 58662U 23208C   25356.59514729  .00011699  00000+0  38380-3 0  9995", "line2": "2 58662  97.4381 110.0240 0006324 219.0424 141.0362 15.31749298110509"}}, "geometry": {"type": "Point", "coordinates": [104.08322200047145, 39.62588591475587]}}, {"type": "Feature", "properties": {"norad_id": 58663, "name": "TIANMU-1 22", "group": "weather", "lat": 1.937532599846541, "lon": -71.81037560330292, "alt_km": 484.25224739151963, "timestamp": "2025-12-22T20:43:45.486725+00:00", "meta": {"OBJECT_NAME": "TIANMU-1 22", "OBJECT_ID": "2023-208D", "EPOCH": "2025-12-22T13:39:53.887680", "MEAN_MOTION": 15.27760012, "ECCENTRICITY": 0.00028595, "INCLINATION": 97.4388, "RA_OF_ASC_NODE": 107.6427, "ARG_OF_PERICENTER": 235.3713, "MEAN_ANOMALY": 124.7256, "EPHEMERIS_TYPE": 0, "CLASSIFICATION_TYPE": "U", "NORAD_CAT_ID": 58663, "ELEMENT_SET_NO": 999, "REV_AT_EPOCH": 11033, "BSTAR": 0.00031999429, "MEAN_MOTION_DOT": 8.605e-05, "MEAN_MOTION_DDOT": 0}, "tle": {"line1": "1 58663U 23208D   25356.56937370  .00008605  00000+0  31999-3 0  9996", "line2": "2 58663  97.4388 107.6427 0002859 235.3713 124.7256 15.27760012110330"}}, "geometry": {"type": "Point", "coordinates": [-71.81037560330292, 1.937532599846541]}}, {"type": "Feature", "properties": {"norad_id": 58700, "name": "TIANMU-1 15", "group": "weather", "lat": -10.629893856999301, "lon": -3.1145510591530337, "alt_km": 494.28458442030296, "timestamp": "2025-12-22T20:43:45.486746+00:00", "meta": {"OBJECT_NAME": "TIANMU-1 15", "OBJECT_ID": "2024-004A", "EPOCH": "2025-12-22T15:10:10.270848", "MEAN_MOTION": 15.24529896, "ECCENTRICITY": 0.00059893, "INCLINATION": 97.4623, "RA_OF_ASC_NODE": 178.0644, "ARG_OF_PERICENTER": 247.9785, "MEAN_ANOMALY": 112.0816, "EPHEMERIS_TYPE": 0, "CLASSIFICATION_TYPE": "U", "NORAD_CAT_ID": 58700, "ELEMENT_SET_NO": 999, "REV_AT_EPOCH": 10885, "BSTAR": 0.00028297747, "MEAN_MOTION_DOT": 6.894e-05, "MEAN_MOTION_DDOT": 0}, "tle": {"line1": "1 58700U 24004A   25356.63206332  .00006894  00000+0  28298-3 0  9994", "line2": "2 58700  97.4623 178.0644 0005989 247.9785 112.0816 15.24529896108858"}}, "geometry": {"type": "Point", "coordinates": [-3.1145510591530337, -10.629893856999301]}}, {"type": "Feature", "properties": {"norad_id": 58701, "name": "TIANMU-1 16", "group": "weather", "lat": -81.90120647329515, "lon": -115.34585876215185, "alt_km": 496.72522402845607, "timestamp": "2025-12-22T20:43:45.486780+00:00", "meta": {"OBJECT_NAME": "TIANMU-1 16", "OBJECT_ID": "2024-004B", "EPOCH": "2025-12-22T14:48:31.449024", "MEAN_MOTION": 15.24556577, "ECCENTRICITY": 0.00043495, "INCLINATION": 97.4562, "RA_OF_ASC_NODE": 177.4302, "ARG_OF_PERICENTER": 250.9779, "MEAN_ANOMALY": 109.0987, "EPHEMERIS_TYPE": 0, "CLASSIFICATION_TYPE": "U", "NORAD_CAT_ID": 58701, "ELEMENT_SET_NO": 999, "REV_AT_EPOCH": 10885, "BSTAR": 0.00028034467, "MEAN_MOTION_DOT": 6.834e-05, "MEAN_MOTION_DDOT": 0}, "tle": {"line1": "1 58701U 24004B   25356.61703066  .00006834  00000+0  28034-3 0  9991", "line2": "2 58701  97.4562 177.4302 0004349 250.9779 109.0987 15.24556577108852"}}, "geometry": {"type": "Point", "coordinates": [-115.34585876215185, -81.90120647329515]}}, {"type": "Feature", "properties": {"norad_id": 58702, "name": "TIANMU-1 17", "group": "weather", "lat": -0.8429568646905039, "lon": 178.20139804693122, "alt_km": 495.9241608950788, "timestamp": "2025-12-22T20:43:45.486797+00:00", "meta": {"OBJECT_NAME": "TIANMU-1 17", "OBJECT_ID": "2024-004C", "EPOCH": "2025-12-22T14:25:56.125920", "MEAN_MOTION": 15.24599563, "ECCENTRICITY": 0.00035379, "INCLINATION": 97.4596, "RA_OF_ASC_NODE": 177.8297, "ARG_OF_PERICENTER": 252.3755, "MEAN_ANOMALY": 107.7097, "EPHEMERIS_TYPE": 0, "CLASSIFICATION_TYPE": "U", "NORAD_CAT_ID": 58702, "ELEMENT_SET_NO": 999, "REV_AT_EPOCH": 10884, "BSTAR": 0.00029427501, "MEAN_MOTION_DOT": 7.186e-05, "MEAN_MOTION_DDOT": 0}, "tle": {"line1": "1 58702U 24004C   25356.60134405  .00007186  00000+0  29428-3 0  9995", "line2": "2 58702  97.4596 177.8297 0003537 252.3755 107.7097 15.24599563108843"}}, "geometry": {"type": "Point", "coordinates": [178.20139804693122, -0.8429568646905039]}}, {"type": "Feature", "properties": {"norad_id": 58703, "name": "TIANMU-1 18", "group": "weather", "lat": 82.53028485517235, "lon": 86.61554165557858, "alt_km": 486.40762842035747, "timestamp": "2025-12-22T20:43:45.486813+00:00", "meta": {"OBJECT_NAME": "TIANMU-1 18", "OBJECT_ID": "2024-004D", "EPOCH": "2025-12-22T14:02:02.668704", "MEAN_MOTION": 15.24584027, "ECCENTRICITY": 0.00029016, "INCLINATION": 97.4614, "RA_OF_ASC_NODE": 178.0106, "ARG_OF_PERICENTER": 249.6242, "MEAN_ANOMALY": 110.4684, "EPHEMERIS_TYPE": 0, "CLASSIFICATION_TYPE": "U", "NORAD_CAT_ID": 58703, "ELEMENT_SET_NO": 999, "REV_AT_EPOCH": 10884, "BSTAR": 0.00029430789, "MEAN_MOTION_DOT": 7.183e-05, "MEAN_MOTION_DDOT": 0}, "tle": {"line1": "1 58703U 24004D   25356.58475311  .00007183  00000+0  29431-3 0  9998", "line2": "2 58703  97.4614 178.0106 0002901 249.6242 110.4684 15.24584027108843"}}, "geometry": {"type": "Point", "coordinates": [86.61554165557858, 82.53028485517235]}}, {"type": "Feature", "properties": {"norad_id": 58990, "name": "INSAT-3DS", "group": "weather", "lat": 0.04148683349719636, "lon": 124.69644149230498, "alt_km": 35790.16923864799, "timestamp": "2025-12-22T20:43:45.486831+00:00", "meta": {"OBJECT_NAME": "INSAT-3DS", "OBJECT_ID": "2024-033A", "EPOCH": "2025-12-22T08:25:12.885312", "MEAN_MOTION": 1.00271856, "ECCENTRICITY": 0.00011263, "INCLINATION": 0.0555, "RA_OF_ASC_NODE": 101.0552, "ARG_OF_PERICENTER": 172.6391, "MEAN_ANOMALY": 25.8743, "EPHEMERIS_TYPE": 0, "CLASSIFICATION_TYPE": "U", "NORAD_CAT_ID": 58990, "ELEMENT_SET_NO": 999, "REV_AT_EPOCH": 4529, "BSTAR": 0, "MEAN_MOTION_DOT": -1.35e-06, "MEAN_MOTION_DDOT": 0}, "tle": {"line1": "1 58990U 24033A   25356.35084358 -.00000135  00000+0  00000+0 0  9998", "line2": "2 58990   0.0555 101.0552 0001126 172.6391  25.8743  1.00271856 45290"}}, "geometry": {"type": "Point", "coordinates": [124.69644149230498, 0.04148683349719636]}}, {"type": "Feature", "properties": {"norad_id": 59051, "name": "METEOR-M2 4", "group": "weather", "lat": 30.39952774376184, "lon": 138.75527357894453, "alt_km": 820.2827600023711, "timestamp": "2025-12-22T20:43:45.486899+00:00", "meta": {"OBJECT_NAME": "METEOR-M2 4", "OBJECT_ID": "2024-039A", "EPOCH": "2025-12-22T14:57:56.412576", "MEAN_MOTION": 14.22402676, "ECCENTRICITY": 0.00065228, "INCLINATION": 98.6781, "RA_OF_ASC_NODE": 313.3781, "ARG_OF_PERICENTER": 329.0868, "MEAN_ANOMALY": 30.9925, "EPHEMERIS_TYPE": 0, "CLASSIFICATION_TYPE": "U", "NORAD_CAT_ID": 59051, "ELEMENT_SET_NO": 999, "REV_AT_EPOCH": 9416, "BSTAR": 2.9438425e-05, "MEAN_MOTION_DOT": 2.2e-07, "MEAN_MOTION_DDOT": 0}, "tle": {"line1": "1 59051U 24039A   25356.62356959  .00000022  00000+0  29438-4 0  9997", "line2": "2 59051  98.6781 313.3781 0006522 329.0868  30.9925 14.22402676 94160"}}, "geometry": {"type": "Point", "coordinates": [138.75527357894453, 30.39952774376184]}}, {"type": "Feature", "properties": {"norad_id": 60133, "name": "GOES 19", "group": "weather", "lat": -0.0026763932604873036, "lon": -32.58990169858998, "alt_km": 35782.214182875585, "timestamp": "2025-12-22T20:43:45.486924+00:00", "meta": {"OBJECT_NAME": "GOES 19", "OBJECT_ID": "2024-119A", "EPOCH": "2025-12-22T12:17:31.452576", "MEAN_MOTION": 1.00271627, "ECCENTRICITY": 9.416e-05, "INCLINATION": 0.0411, "RA_OF_ASC_NODE": 205.7559, "ARG_OF_PERICENTER": 116.5623, "MEAN_ANOMALY": 238.1932, "EPHEMERIS_TYPE": 0, "CLASSIFICATION_TYPE": "U", "NORAD_CAT_ID": 60133, "ELEMENT_SET_NO": 999, "REV_AT_EPOCH": 519, "BSTAR": 0, "MEAN_MOTION_DOT": -2.27e-06, "MEAN_MOTION_DDOT": 0}, "tle": {"line1": "1 60133U 24119A   25356.51216959 -.00000227  00000+0  00000+0 0  9999", "line2": "2 60133   0.0411 205.7559 0000941 116.5623 238.1932  1.00271627  5191"}}, "geometry": {"type": "Point", "coordinates": [-32.58990169858998, -0.0026763932604873036]}}, {"type": "Feature", "properties": {"norad_id": 65815, "name": "FENGYUN 3H", "group": "weather", "lat": -61.65555361242451, "lon": -47.35474782488449, "alt_km": 833.3528854651686, "timestamp": "2025-12-22T20:43:45.486942+00:00", "meta": {"OBJECT_NAME": "FENGYUN 3H", "OBJECT_ID": "2025-219A", "EPOCH": "2025-12-22T14:15:37.134720", "MEAN_MOTION": 14.19907094, "ECCENTRICITY": 7.755e-05, "INCLINATION": 98.6599, "RA_OF_ASC_NODE": 295.9711, "ARG_OF_PERICENTER": 106.3555, "MEAN_ANOMALY": 253.7707, "EPHEMERIS_TYPE": 0, "CLASSIFICATION_TYPE": "U", "NORAD_CAT_ID": 65815, "ELEMENT_SET_NO": 999, "REV_AT_EPOCH": 1232, "BSTAR": 5.2989085e-05, "MEAN_MOTION_DOT": 6.9e-07, "MEAN_MOTION_DDOT": 0}, "tle": {"line1": "1 65815U 25219A   25356.59417980  .00000069  00000+0  52989-4 0  9999", "line2": "2 65815  98.6599 295.9711 0000775 106.3555 253.7707 14.19907094 12324"}}, "geometry": {"type": "Point", "coordinates": [-47.35474782488449, -61.65555361242451]}}]}